TDRS 3                  
1 19548U 88091B   19088.18729959 -.00000309  00000-0  00000+0 0  9991
2 19548  14.3639   1.5274 0036745 321.8488 241.5129  1.00274061 98926
HST                     
1 20580U 90037B   19087.29736251  .00000457  00000-0  16942-4 0  9996
2 20580  28.4703  36.7544 0002497 321.2198 173.8607 15.09194209388436
TDRS 5                  
1 21639U 91054B   19088.23360965  .00000075  00000-0  00000+0 0  9991
2 21639  14.6628  14.8053 0025169 348.5917  99.3142  1.00271902101261
TDRS 6                  
1 22314U 93003B   19087.37626345 -.00000305  00000-0  00000+0 0  9996
2 22314  14.2560  17.8727 0006641 347.1594 270.0841  1.00269909 95927
TDRS 7                  
1 23613U 95035B   19087.71520330 -.00000211  00000-0  00000+0 0  9997
2 23613  14.3810   8.5619 0036823  29.6581 129.8132  1.00274626 86701
ISS (ZARYA)             
1 25544U 98067A   19088.35752841  .00001966  00000-0  39078-4 0  9994
2 25544  51.6432  38.0659 0002460 127.7629  10.0214 15.52451936162851
LANDSAT 7               
1 25682U 99020A   19088.41920687  .00000148  00000-0  42707-4 0  9993
2 25682  98.1353 157.7338 0001817 103.4588 256.6814 14.57148881 61280
TERRA                   
1 25994U 99068A   19088.23073781  .00000075  00000-0  26623-4 0  9993
2 25994  98.2078 163.9563 0001190  83.7690 276.3619 14.57111176 25333
TDRS 8                  
1 26388U 00034A   19088.42526722 -.00000243  00000-0  00000+0 0  9999
2 26388   8.5394  50.7034 0016382 294.0796  83.8133  1.00279473 68737
TIMED                   
1 26998U 01055B   19088.48648179  .00000075  00000-0  12220-4 0  9991
2 26998  74.0703 100.9260 0002587 282.2111  77.8780 14.88095142938205
TDRS 9                  
1 27389U 02011A   19088.42449858 -.00000300  00000-0  00000+0 0  9996
2 27389   6.5743  71.6888 0013081 268.1775 305.2805  1.00074277 63991
AQUA                    
1 27424U 02022A   19088.20908394  .00000072  00000-0  26142-4 0  9994
2 27424  98.2113  30.3007 0000962 324.4808 179.4356 14.57103561898939
TDRS 10                 
1 27566U 02055A   19088.15806362  .00000078  00000-0  00000+0 0  9999
2 27566   6.1428  55.5885 0010866 278.2631  98.2335  1.00266252 59788
SORCE                   
1 27651U 03004A   19087.02382659  .00000104  00000-0  25052-4 0  9991
2 27651  39.9957 304.9341 0021143 118.8185 241.4730 14.88973602877520
AURA                    
1 28376U 04026A   19087.77524431  .00000053  00000-0  21862-4 0  9997
2 28376  98.2122  32.0352 0000959  89.9875 270.1433 14.57100305781929
SWIFT                   
1 28485U 04047A   19088.01999249  .00000926  00000-0  33201-4 0  9991
2 28485  20.5565 269.4513 0011171 170.6530 189.4112 15.04334207786179
THEMIS A                
1 30580U 07004A   19088.38267478 -.00000632  00000-0  00000+0 0  9999
2 30580   8.8763 108.0757 8365897 281.6044   5.0691  0.87837590 42788
THEMIS D                
1 30797U 07004D   19088.18634089 -.00000695  00000-0  00000+0 0  9992
2 30797   6.8112  63.0952 8534518 333.4212   0.6400  0.75232886 42808
THEMIS E                
1 30798U 07004E   19088.47242443 -.00000622  00000-0  00000+0 0  9994
2 30798   6.0677  84.7962 8409397 312.0048   2.1102  0.81732906 42940
AIM                     
1 31304U 07015A   19087.58270510  .00000580  00000-0  36936-4 0  9991
2 31304  97.9682 307.0907 0006652  85.5929 274.6060 15.12999898653108
FGRST (GLAST)           
1 33053U 08029A   19087.49180764  .00000525  00000-0  13304-4 0  9994
2 33053  25.5823 263.8422 0012091 234.0404 125.9010 15.11199652595623
WISE                    
1 36119U 09071A   19088.04731840  .00000718  00000-0  27718-4 0  9995
2 36119  97.3821 123.8426 0003372 140.9559 219.1925 15.29488679515577
TDRS 11                 
1 39070U 13004A   19085.18039146  .00000057  00000-0  00000+0 0  9993
2 39070   4.4934 329.3556 0003816   4.9551  99.5088  1.00270360 22518
TDRS 12                 
1 39504U 14004A   19087.46609146 -.00000288  00000-0  00000-0 0  9990
2 39504   5.2167 336.4102 0002047 352.0359 344.0359  1.00270222 17825
GPM-CORE                
1 39574U 14009C   19088.13601993  .00003289  00000-0  52173-4 0  9994
2 39574  65.0065 229.5845 0011455 285.7819  74.2063 15.55451259288634
MMS 1                   
1 40482U 15011A   19082.00247685 -.00000728  00000-0  00000+0 0  9995
2 40482   7.1640 111.3495 9110063  18.4730  17.5233  0.28571805  9922
MMS 2                   
1 40483U 15011B   19082.00255787 -.00000729  00000-0  00000+0 0  9999
2 40483   7.1660 111.3620 9109263  18.4671  17.5304  0.28566425  9908
MMS 3                   
1 40484U 15011C   19081.84473774 -.00000703  00000-0  00000+0 0  9991
2 40484   7.1553 111.3526 9109203  18.4521   1.3172  0.28573355  9907
MMS 4                   
1 40485U 15011D   19082.00627315 -.00000729  00000-0  00000+0 0  9991
2 40485   7.1670 111.3552 9109771  18.4704  17.9298  0.28566477  9897
TDRS 13                 
1 42915U 17047A   19088.40520295 -.00000119  00000-0  00000+0 0  9994
2 42915   6.2407 330.6304 0015481  74.2322 276.0112  1.00272763  5934
JPSS-1                  
1 43013U 17073A   19088.54065880 -.00000009  00000-0  16357-4 0  9997
2 43013  98.7142  27.9589 0001265 104.1981 255.9336 14.19551215 70398
